{
  "type": "FeatureCollection",
  "features": [
    {
      "type": "Feature",
      "properties": {
        "norad_id": 67026,
        "name": "STARLINK-36176",
        "group": "last-30-days",
        "lat": 62.25309674024882,
        "lon": -35.869283338149685,
        "alt_km": 360.12878080262453,
        "timestamp": "2025-12-27T19:21:57.546315+00:00",
        "meta_object_name": "STARLINK-36176",
        "meta_object_id": "2025-293Z",
        "meta_epoch": "2025-12-27T12:00:02.000160",
        "meta_mean_motion": 15.69125315,
        "meta_eccentricity": 0.0003323,
        "meta_inclination": 69.9984,
        "meta_ra_of_asc_node": 281.1672,
        "meta_arg_of_pericenter": 268.2334,
        "meta_mean_anomaly": 229.7297,
        "meta_ephemeris_type": 0,
        "meta_classification_type": "U",
        "meta_norad_cat_id": 67026,
        "meta_element_set_no": 999,
        "meta_rev_at_epoch": 259,
        "meta_bstar": -0.016285,
        "meta_mean_motion_dot": -0.01675477,
        "meta_mean_motion_ddot": 0,
        "tle_line1": "1 67026U 25293Z   25361.50002315 -.01675477  00000+0 -16285-1 0  9996",
        "tle_line2": "2 67026  69.9984 281.1672 0003323 268.2334 229.7297 15.69125315  2596"
      },
      "geometry": {
        "type": "Point",
        "coordinates": [
          -35.869283338149685,
          62.25309674024882
        ]
      }
    },
    {
      "type": "Feature",
      "properties": {
        "norad_id": 67027,
        "name": "STARLINK-36171",
        "group": "last-30-days",
        "lat": 60.81200895624673,
        "lon": -38.9894325440372,
        "alt_km": 360.1905840088066,
        "timestamp": "2025-12-27T19:21:57.546323+00:00",
        "meta_object_name": "STARLINK-36171",
        "meta_object_id": "2025-293AA",
        "meta_epoch": "2025-12-27T12:00:02.000160",
        "meta_mean_motion": 15.69132284,
        "meta_eccentricity": 0.0003258,
        "meta_inclination": 69.9978,
        "meta_ra_of_asc_node": 281.1696,
        "meta_arg_of_pericenter": 267.9458,
        "meta_mean_anomaly": 227.9385,
        "meta_ephemeris_type": 0,
        "meta_classification_type": "U",
        "meta_norad_cat_id": 67027,
        "meta_element_set_no": 999,
        "meta_rev_at_epoch": 259,
        "meta_bstar": -0.016211,
        "meta_mean_motion_dot": -0.01669138,
        "meta_mean_motion_ddot": 0,
        "tle_line1": "1 67027U 25293AA  25361.50002315 -.01669138  00000+0 -16211-1 0  9993",
        "tle_line2": "2 67027  69.9978 281.1696 0003258 267.9458 227.9385 15.69132284  2597"
      },
      "geometry": {
        "type": "Point",
        "coordinates": [
          -38.9894325440372,
          60.81200895624673
        ]
      }
    },
    {
      "type": "Feature",
      "properties": {
        "norad_id": 67028,
        "name": "STARLINK-36132",
        "group": "last-30-days",
        "lat": 65.09424780801452,
        "lon": -28.020153093100838,
        "alt_km": 359.9912110177529,
        "timestamp": "2025-12-27T19:21:57.546334+00:00",
        "meta_object_name": "STARLINK-36132",
        "meta_object_id": "2025-293AB",
        "meta_epoch": "2025-12-27T12:00:02.000160",
        "meta_mean_motion": 15.69087089,
        "meta_eccentricity": 0.000332,
        "meta_inclination": 69.9985,
        "meta_ra_of_asc_node": 281.1628,
        "meta_arg_of_pericenter": 268.8221,
        "meta_mean_anomaly": 233.6687,
        "meta_ephemeris_type": 0,
        "meta_classification_type": "U",
        "meta_norad_cat_id": 67028,
        "meta_element_set_no": 999,
        "meta_rev_at_epoch": 259,
        "meta_bstar": -0.01636,
        "meta_mean_motion_dot": -0.01679976,
        "meta_mean_motion_ddot": 0,
        "tle_line1": "1 67028U 25293AB  25361.50002315 -.01679976  00000+0 -16360-1 0  9990",
        "tle_line2": "2 67028  69.9985 281.1628 0003320 268.8221 233.6687 15.69087089  2590"
      },
      "geometry": {
        "type": "Point",
        "coordinates": [
          -28.020153093100838,
          65.09424780801452
        ]
      }
    },
    {
      "type": "Feature",
      "properties": {
        "norad_id": 67029,
        "name": "STARLINK-36190",
        "group": "last-30-days",
        "lat": 63.65049480824835,
        "lon": -32.35033022987382,
        "alt_km": 360.0263556762711,
        "timestamp": "2025-12-27T19:21:57.546345+00:00",
        "meta_object_name": "STARLINK-36190",
        "meta_object_id": "2025-293AC",
        "meta_epoch": "2025-12-27T12:00:02.000160",
        "meta_mean_motion": 15.69113547,
        "meta_eccentricity": 0.0003287,
        "meta_inclination": 69.9982,
        "meta_ra_of_asc_node": 281.1655,
        "meta_arg_of_pericenter": 267.193,
        "meta_mean_anomaly": 232.9064,
        "meta_ephemeris_type": 0,
        "meta_classification_type": "U",
        "meta_norad_cat_id": 67029,
        "meta_element_set_no": 999,
        "meta_rev_at_epoch": 259,
        "meta_bstar": -0.016307,
        "meta_mean_motion_dot": -0.01676776,
        "meta_mean_motion_ddot": 0,
        "tle_line1": "1 67029U 25293AC  25361.50002315 -.01676776  00000+0 -16307-1 0  9997",
        "tle_line2": "2 67029  69.9982 281.1655 0003287 267.1930 232.9064 15.69113547  2599"
      },
      "geometry": {
        "type": "Point",
        "coordinates": [
          -32.35033022987382,
          63.65049480824835
        ]
      }
    },
    {
      "type": "Feature",
      "properties": {
        "norad_id": 67030,
        "name": "STARLINK-36138",
        "group": "last-30-days",
        "lat": -33.74246651044374,
        "lon": 44.61530908191364,
        "alt_km": 388.7443157373991,
        "timestamp": "2025-12-27T19:21:57.546354+00:00",
        "meta_object_name": "STARLINK-36138",
        "meta_object_id": "2025-294A",
        "meta_epoch": "2025-12-27T12:00:02.000160",
        "meta_mean_motion": 15.61599876,
        "meta_eccentricity": 0.0001514,
        "meta_inclination": 42.999,
        "meta_ra_of_asc_node": 92.2358,
        "meta_arg_of_pericenter": 278.4946,
        "meta_mean_anomaly": 100.3405,
        "meta_ephemeris_type": 0,
        "meta_classification_type": "U",
        "meta_norad_cat_id": 67030,
        "meta_element_set_no": 999,
        "meta_rev_at_epoch": 247,
        "meta_bstar": -0.024519,
        "meta_mean_motion_dot": -0.01914408,
        "meta_mean_motion_ddot": 0,
        "tle_line1": "1 67030U 25294A   25361.50002315 -.01914408  00000+0 -24519-1 0  9991",
        "tle_line2": "2 67030  42.9990  92.2358 0001514 278.4946 100.3405 15.61599876  2474"
      },
      "geometry": {
        "type": "Point",
        "coordinates": [
          44.61530908191364,
          -33.74246651044374
        ]
      }
    },
    {
      "type": "Feature",
      "properties": {
        "norad_id": 67031,
        "name": "STARLINK-36150",
        "group": "last-30-days",
        "lat": -32.83900553340917,
        "lon": 46.566513057116865,
        "alt_km": 388.6450398077195,
        "timestamp": "2025-12-27T19:21:57.546364+00:00",
        "meta_object_name": "STARLINK-36150",
        "meta_object_id": "2025-294B",
        "meta_epoch": "2025-12-27T12:00:02.000160",
        "meta_mean_motion": 15.6161062,
        "meta_eccentricity": 0.000156,
        "meta_inclination": 42.9991,
        "meta_ra_of_asc_node": 92.2304,
        "meta_arg_of_pericenter": 281.3069,
        "meta_mean_anomaly": 99.3918,
        "meta_ephemeris_type": 0,
        "meta_classification_type": "U",
        "meta_norad_cat_id": 67031,
        "meta_element_set_no": 999,
        "meta_rev_at_epoch": 267,
        "meta_bstar": -0.024666,
        "meta_mean_motion_dot": -0.01925299,
        "meta_mean_motion_ddot": 0,
        "tle_line1": "1 67031U 25294B   25361.50002315 -.01925299  00000+0 -24666-1 0  9995",
        "tle_line2": "2 67031  42.9991  92.2304 0001560 281.3069  99.3918 15.61610620  2676"
      },
      "geometry": {
        "type": "Point",
        "coordinates": [
          46.566513057116865,
          -32.83900553340917
        ]
      }
    },
    {
      "type": "Feature",
      "properties": {
        "norad_id": 67032,
        "name": "STARLINK-36131",
        "group": "last-30-days",
        "lat": -30.83249153052626,
        "lon": 50.562769765522795,
        "alt_km": 388.64554687869077,
        "timestamp": "2025-12-27T19:21:57.546375+00:00",
        "meta_object_name": "STARLINK-36131",
        "meta_object_id": "2025-294C",
        "meta_epoch": "2025-12-27T12:00:02.000160",
        "meta_mean_motion": 15.61594454,
        "meta_eccentricity": 0.0001511,
        "meta_inclination": 42.9991,
        "meta_ra_of_asc_node": 92.2205,
        "meta_arg_of_pericenter": 279.684,
        "meta_mean_anomaly": 104.984,
        "meta_ephemeris_type": 0,
        "meta_classification_type": "U",
        "meta_norad_cat_id": 67032,
        "meta_element_set_no": 999,
        "meta_rev_at_epoch": 247,
        "meta_bstar": -0.024609,
        "meta_mean_motion_dot": -0.0192025,
        "meta_mean_motion_ddot": 0,
        "tle_line1": "1 67032U 25294C   25361.50002315 -.01920250  00000+0 -24609-1 0  9995",
        "tle_line2": "2 67032  42.9991  92.2205 0001511 279.6840 104.9840 15.61594454  2471"
      },
      "geometry": {
        "type": "Point",
        "coordinates": [
          50.562769765522795,
          -30.83249153052626
        ]
      }
    }
  ]
}